IRIDIUM 136             
1 42962U 17061H   24010.47239251  .00000328  00000+0  11003-3 0  9998
2 42962  86.3955  36.6408 0002460  92.6751 267.4727 14.34217975327459
